DMSP 5D-3 F16 (USA 172) 
1 28054U 03048A   26182.95901949 -.00000003  00000+0  22183-4 0  9992
2 28054  98.9886 206.8847 0008183 103.5479  10.9498 14.14484270171570
METEOSAT-9 (MSG-2)      
1 28912U 05049B   26181.73820331  .00000127  00000+0  00000+0 0  9993
2 28912   9.3903  54.0333 0001827   1.4312 174.9175  1.00279300  7132
DMSP 5D-3 F17 (USA 191) 
1 29522U 06050A   26182.94834663  .00000012  00000+0  28711-4 0  9998
2 29522  98.7380 189.2164 0010521  20.3591 339.8000 14.14994858 14514
FENGYUN 3A              
1 32958U 08026A   26182.77837864  .00000064  00000+0  50739-4 0  9999
2 32958  98.6884 123.3387 0009881  86.2029 274.0277 14.19574021937475
GOES 14                 
1 35491U 09033A   26182.89608266 -.00000328  00000+0  00000+0 0  9993
2 35491   1.7258  82.8770 0002255  25.1132 267.7432  1.00105855  6739
DMSP 5D-3 F18 (USA 210) 
1 35951U 09057A   26182.92068011  .00000260  00000+0  15748-3 0  9995
2 35951  98.9044 163.6582 0010448 203.7913 156.2778 14.14905043861677
EWS-G2 (GOES 15)        
1 36411U 10008A   26182.95441804  .00000031  00000+0  00000+0 0  9990
2 36411   1.3160  82.6488 0005386  45.3299 199.0962  1.00268370 59780
COMS 1                  
1 36744U 10032A   26182.97335694 -.00000072  00000+0  00000+0 0  9993
2 36744   4.8409  75.1829 0011818  13.7699 196.0256  0.99168833 51234
FENGYUN 3B              
1 37214U 10059A   26183.01372144 -.00000425  00000+0 -19620-3 0  9997
2 37214  98.9611 229.0905 0022704 142.3810 281.1872 14.14842655809527
SUOMI NPP               
1 37849U 11061A   26182.93114481  .00000078  00000+0  58134-4 0  9999
2 37849  98.7955 123.7066 0000725 314.4599  45.6517 14.19520364760534
METEOSAT-10 (MSG-3)     
1 38552U 12035B   26182.86973881  .00000001  00000+0  00000+0 0  9992
2 38552   4.7043  60.9492 0001625  14.9274 157.2763  1.00269422 51007
METOP-B                 
1 38771U 12049A   26182.90133502  .00000118  00000+0  73955-4 0  9996
2 38771  98.6497 234.1065 0001345 331.7238  28.3867 14.21443352715356
INSAT-3D                
1 39216U 13038B   26182.89538933 -.00000330  00000+0  00000+0 0  9998
2 39216   1.9621  82.3689 0001098  12.4726 276.9412  1.00269269 47229
FENGYUN 3C              
1 39260U 13052A   26182.95590299  .00000093  00000+0  68413-4 0  9995
2 39260  98.4988 156.1530 0014353 345.8131  14.2638 14.15758402660654
METEOR-M 2              
1 40069U 14037A   26182.92748876 -.00000070  00000+0 -12657-4 0  9997
2 40069  98.5118 158.1442 0006003   6.4784 353.6470 14.21464832621413
HIMAWARI-8              
1 40267U 14060A   26182.89755600 -.00000265  00000+0  00000+0 0  9991
2 40267   0.0150  24.1825 0001089  79.9799 279.5802  1.00272310 42901
FENGYUN 2G              
1 40367U 14090A   26182.90925532 -.00000294  00000+0  00000+0 0  9992
2 40367   5.6746  72.6430 0003602 150.4692 123.7546  1.00267071 42143
METEOSAT-11 (MSG-4)     
1 40732U 15034A   26182.87155881  .00000070  00000+0  00000+0 0  9996
2 40732   3.2372  71.0186 0002228 348.6845 183.3120  1.00267679  7362
ELEKTRO-L 2             
1 41105U 15074A   26182.93811038 -.00000111  00000+0  00000+0 0  9992
2 41105   6.7296  70.3426 0000516 273.6365 259.1662  1.00271077 38657
SENTINEL-3A             
1 41335U 16011A   26182.94384544  .00000124  00000+0  69261-4 0  9999
2 41335  98.6244 250.1152 0001437  94.9494 265.1850 14.26736714540165
INSAT-3DR               
1 41752U 16054A   26182.74174926 -.00000067  00000+0  00000+0 0  9996
2 41752   0.1407  85.9571 0010084 186.3350 348.5098  1.00272346 35962
HIMAWARI-9              
1 41836U 16064A   26182.89755600 -.00000264  00000+0  00000+0 0  9999
2 41836   0.0330 265.6561 0001435 218.8498 259.3030  1.00272755 35351
GOES 16                 
1 41866U 16071A   26182.92024943 -.00000081  00000+0  00000+0 0  9990
2 41866   0.3758  85.5291 0000569  28.3779  32.6611  1.00272034 35259
FENGYUN 4A              
1 41882U 16077A   26182.96548515 -.00000348  00000+0  00000+0 0  9990
2 41882   2.3585  80.1286 0007928 158.0114 153.1705  1.00276475 35078
CYGFM05                 
1 41884U 16078A   26182.34971645  .00030302  00000+0  40063-3 0  9998
2 41884  34.9552 166.7634 0008165 275.0442  84.9350 15.57267856530966
CYGFM04                 
1 41885U 16078B   26182.91456908  .00037225  00000+0  40503-3 0  9992
2 41885  34.9316 129.9565 0006651 314.4169  45.6012 15.62337835531300
CYGFM02                 
1 41886U 16078C   26182.95021279  .00043820  00000+0  42047-3 0  9999
2 41886  34.9398 123.8122 0007563 317.6781  42.3362 15.65476653531487
CYGFM01                 
1 41887U 16078D   26182.97292711  .00028542  00000+0  36727-3 0  9995
2 41887  34.9383 163.5685 0007973 274.7901  85.1913 15.57998021531014
CYGFM08                 
1 41888U 16078E   26182.33097842  .00036446  00000+0  42168-3 0  9992
2 41888  34.9420 147.0291 0008858 298.5581  61.4253 15.60737829531181
CYGFM07                 
1 41890U 16078G   26182.92882219  .00034095  00000+0  39275-3 0  9993
2 41890  34.9438 131.3742 0007044 315.1660  44.8495 15.60880718531303
CYGFM03                 
1 41891U 16078H   26182.96386154  .00033872  00000+0  39031-3 0  9997
2 41891  34.9394 133.0731 0006982 303.1690  56.8366 15.60872913531287
